OBJECT_NAME,OBJECT_ID,EPOCH,MEAN_MOTION,ECCENTRICITY,INCLINATION,RA_OF_ASC_NODE,ARG_OF_PERICENTER,MEAN_ANOMALY,EPHEMERIS_TYPE,CLASSIFICATION_TYPE,NORAD_CAT_ID,ELEMENT_SET_NO,REV_AT_EPOCH,BSTAR,MEAN_MOTION_DOT,MEAN_MOTION_DDOT
GOSAT (IBUKI),2009-002A,2024-07-07T20:17:13.331616,14.67566443,.0001477,98.0405,300.9653,100.0482,260.0890,0,U,33492,999,82788,.23243E-3,.1271E-4,0
YAOGAN-6,2009-021A,2024-07-08T04:14:15.179712,15.49042719,.0019576,97.1716,157.5231,102.0275,258.3171,0,U,34839,999,84670,.33865E-3,.18417E-3,0
DEIMOS-1,2009-041A,2024-07-08T04:20:18.165120,14.73378531,.0001175,97.6806,10.9779,27.2136,332.9134,0,U,35681,999,80240,.12938E-3,.792E-5,0
DUBAISAT-1,2009-041B,2024-07-07T22:43:53.837760,14.71680245,.0011124,97.9095,325.6126,180.4588,179.6611,0,U,35682,999,80069,.2929E-3,.1778E-4,0
OCEANSAT-2,2009-051A,2024-07-08T00:29:31.215552,13.99477731,.001692,98.2638,236.7834,78.9922,281.3147,0,U,35931,999,78013,-.91458E-4,-.171E-5,0
WORLDVIEW-2 (WV-2),2009-055A,2024-07-08T03:50:08.965536,14.36824151,.0004541,98.4606,262.6102,157.5119,202.6267,0,U,35946,999,77390,.99239E-4,.25E-5,0
SMOS,2009-059A,2024-07-08T01:12:05.274720,14.39767214,.0001414,98.4428,16.6901,92.9546,267.1804,0,U,36036,999,77155,.16741E-3,.481E-5,0
YAOGAN-7,2009-069A,2024-07-08T03:42:10.113408,14.76292843,.0025832,98.1030,66.0512,158.1672,202.0644,0,U,36110,999,78498,.10812E-3,.7E-5,0
TANDEM-X,2010-030A,2024-07-07T20:33:05.330880,15.19155374,.0001921,97.4452,196.7139,101.8792,258.2658,0,U,36605,999,77894,.93104E-4,.1889E-4,0
CARTOSAT-2B,2010-035A,2024-07-08T04:31:40.398528,14.78735750,.0011363,97.8590,247.7766,335.3518,24.7149,0,U,36795,999,75515,.166E-3,.1169E-4,0
YAOGAN-10,2010-038A,2024-07-08T01:01:00.103584,14.82897859,.0001343,97.9474,207.0587,94.3294,322.5535,0,U,36834,999,75209,.14225E-3,.11E-4,0
COSMO-SKYMED 4,2010-060A,2024-07-08T01:02:00.551616,14.82169599,.000145,97.8871,12.8815,87.6231,272.5148,0,U,37216,999,73958,.1026E-3,.765E-5,0
RESOURCESAT-2,2011-015A,2024-07-07T22:10:18.378912,14.21694093,.000537,98.5763,255.1075,65.4693,294.7044,0,U,37387,999,68593,.13716E-3,.259E-5,0
HAIYANG-2A,2011-043A,2024-07-08T00:31:33.397248,13.78787855,.0001464,99.3252,193.1708,61.7728,298.3571,0,U,37781,999,64920,.53294E-4,.1E-6,0
RASAT,2011-044D,2024-07-08T03:17:10.318272,14.66403572,.0019949,98.0791,281.2955,278.1895,174.3408,0,U,37791,999,68921,.1528E-3,.798E-5,0
SRMSAT,2011-058D,2024-07-07T14:51:39.506400,14.11136538,.0011775,19.9735,33.2011,319.4253,77.7051,0,U,37841,999,65745,.11216E-3,.47E-5,0
YAOGAN-13,2011-072A,2024-07-08T03:58:29.298432,15.45201071,.0001389,97.7190,175.1995,107.2519,252.8881,0,U,37941,999,69971,.51727E-3,.24505E-3,0
PLEIADES 1A,2011-076F,2024-07-08T04:41:08.409408,14.58576870,.0001318,98.2035,264.4068,109.7531,304.2958,0,U,38012,999,66865,.13205E-3,.568E-5,0
ZIYUAN 1-02C (ZY 1-02C),2011-079A,2024-07-08T04:10:19.635168,14.36880244,.00054,98.4971,258.2867,263.1610,149.9388,0,U,38038,999,65738,.24779E-3,.689E-5,0
ZIYUAN 3-1 (ZY 3-1),2012-001A,2024-07-08T04:52:07.948992,15.32594530,.000614,97.2450,251.7077,78.3681,281.8251,0,U,38046,999,69415,.4382E-3,.13733E-3,0
ARIRANG-3 (KOMPSAT-3),2012-025B,2024-07-08T01:42:26.414784,14.62861329,.0010334,98.2627,136.3687,166.7506,193.3969,0,U,38338,999,64779,.17632E-3,.853E-5,0
KANOPUS-V 1,2012-039A,2024-07-07T20:10:18.757632,15.50830776,.0002404,97.4965,129.1568,88.2858,271.8669,0,U,38707,999,66441,.7345E-3,.42459E-3,0
EXACTVIEW-1 (ADS-1B),2012-039C,2024-07-08T04:15:26.089056,14.24479692,.0011786,98.9520,282.4317,58.5055,301.7274,0,U,38709,999,62174,.10607E-3,.2E-5,0
SPOT 6,2012-047A,2024-07-08T04:48:33.504192,14.58564098,.0001231,98.2217,256.6233,108.8203,251.3130,0,U,38755,999,62973,.13599E-3,.586E-5,0
PLEIADES 1B,2012-068A,2024-07-08T05:15:38.620800,14.58583898,.0001304,98.1957,264.4350,100.1852,259.9495,0,U,39019,999,61750,.13461E-3,.58E-5,0
GOKTURK 2,2012-073A,2024-07-08T04:59:13.517376,14.73969751,.0002061,97.7507,50.1892,96.5467,263.5977,0,U,39030,999,62003,.11411E-3,.702E-5,0
LANDSAT 8,2013-008A,2024-07-08T00:17:14.678016,14.57099663,.0001107,98.2284,259.3677,99.3727,260.7597,0,U,39084,999,60644,.14147E-3,.592E-5,0
SARAL,2013-009A,2024-07-07T19:49:31.262592,14.32439941,.0001381,98.5512,14.6543,185.8380,174.2788,0,U,39086,999,59403,.8439E-4,.185E-5,0
GAOFEN-1,2013-018A,2024-07-08T04:56:44.426400,14.76538882,.0020655,97.9888,262.3482,33.3472,326.9034,0,U,39150,999,60366,.15471E-3,.103E-4,0
VNREDSAT 1,2013-021B,2024-07-08T04:15:13.739904,14.63642168,.0001276,97.9963,256.3882,105.6135,254.5209,0,U,39160,999,59652,.20293E-3,.1009E-4,0
ARIRANG-5 (KOMPSAT-5),2013-042A,2024-07-08T02:52:56.476704,15.04557784,.0002798,97.6205,15.7268,50.4313,309.7160,0,U,39227,999,59730,.19133E-3,.2622E-4,0
