SRMSAT                  
1 37841U 11058D   24189.61920725  .00000470  00000+0  11216-3 0  9998
2 37841  19.9735  33.2011 0011775 319.4253  77.7051 14.11136538657454
SARAL                   
1 39086U 13009A   24189.82605628  .00000185  00000+0  84390-4 0  9991
2 39086  98.5512  14.6543 0001381 185.8380 174.2788 14.32439941594035
DEIMOS-1                
1 35681U 09041A   24190.18076580  .00000792  00000+0  12938-3 0  9991
2 35681  97.6806  10.9779 0001175  27.2136 332.9134 14.73378531802400
GOSAT (IBUKI)           
1 33492U 09002A   24189.84529319  .00001271  00000+0  23243-3 0  9994
2 33492  98.0405 300.9653 0001477 100.0482 260.0890 14.67566443827883
YAOGAN-6                
1 34839U 09021A   24190.17656458  .00018417  00000+0  33865-3 0  9995
2 34839  97.1716 157.5231 0019576 102.0275 258.3171 15.49042719846703
DUBAISAT-1              
1 35682U 09041B   24189.94715090  .00001778  00000+0  29290-3 0  9994
2 35682  97.9095 325.6126 0011124 180.4588 179.6611 14.71680245800695
OCEANSAT-2              
1 35931U 09051A   24190.02050018 -.00000171  00000+0 -91458-4 0  9999
2 35931  98.2638 236.7834 0016920  78.9922 281.3147 13.99477731780133
WORLDVIEW-2 (WV-2)      
1 35946U 09055A   24190.15982599  .00000250  00000+0  99239-4 0  9992
2 35946  98.4606 262.6102 0004541 157.5119 202.6267 14.36824151773900
SMOS                    
1 36036U 09059A   24190.05006105  .00000481  00000+0  16741-3 0  9998
2 36036  98.4428  16.6901 0001414  92.9546 267.1804 14.39767214771550
YAOGAN-7                
1 36110U 09069A   24190.15428372  .00000700  00000+0  10812-3 0  9994
2 36110  98.1030  66.0512 0025832 158.1672 202.0644 14.76292843784984
TANDEM-X                
1 36605U 10030A   24189.85631170  .00001889  00000+0  93104-4 0  9995
2 36605  97.4452 196.7139 0001921 101.8792 258.2658 15.19155374778942
CARTOSAT-2B             
1 36795U 10035A   24190.18866202  .00001169  00000+0  16600-3 0  9990
2 36795  97.8590 247.7766 0011363 335.3518  24.7149 14.78735750755158
YAOGAN-10               
1 36834U 10038A   24190.04236231  .00001100  00000+0  14225-3 0  9991
2 36834  97.9474 207.0587 0001343  94.3294 322.5535 14.82897859752096
COSMO-SKYMED 4          
1 37216U 10060A   24190.04306194  .00000765  00000+0  10260-3 0  9998
2 37216  97.8871  12.8815 0001450  87.6231 272.5148 14.82169599739588
RESOURCESAT-2           
1 37387U 11015A   24189.92382383  .00000259  00000+0  13716-3 0  9994
2 37387  98.5763 255.1075 0005370  65.4693 294.7044 14.21694093685931
HAIYANG-2A              
1 37781U 11043A   24190.02191432  .00000010  00000+0  53294-4 0  9990
2 37781  99.3252 193.1708 0001464  61.7728 298.3571 13.78787855649208
RASAT                   
1 37791U 11044D   24190.13692498  .00000798  00000+0  15280-3 0  9997
2 37791  98.0791 281.2955 0019949 278.1895 174.3408 14.66403572689218
YAOGAN-13               
1 37941U 11072A   24190.16561688  .00024505  00000+0  51727-3 0  9992
2 37941  97.7190 175.1995 0001389 107.2519 252.8881 15.45201071699714
PLEIADES 1A             
1 38012U 11076F   24190.19523622  .00000568  00000+0  13205-3 0  9997
2 38012  98.2035 264.4068 0001318 109.7531 304.2958 14.58576870668655
ZIYUAN 1-02C (ZY 1-02C) 
1 38038U 11079A   24190.17383837  .00000689  00000+0  24779-3 0  9990
2 38038  98.4971 258.2867 0005400 263.1610 149.9388 14.36880244657389
ZIYUAN 3-1 (ZY 3-1)     
1 38046U 12001A   24190.20286978  .00013733  00000+0  43820-3 0  9999
2 38046  97.2450 251.7077 0006140  78.3681 281.8251 15.32594530694152
ARIRANG-3 (KOMPSAT-3)   
1 38338U 12025B   24190.07113906  .00000853  00000+0  17632-3 0  9995
2 38338  98.2627 136.3687 0010334 166.7506 193.3969 14.62861329647792
KANOPUS-V 1             
1 38707U 12039A   24189.84049488  .00042459  00000+0  73450-3 0  9994
2 38707  97.4965 129.1568 0002404  88.2858 271.8669 15.50830776664410
EXACTVIEW-1 (ADS-1B)    
1 38709U 12039C   24190.17738529  .00000200  00000+0  10607-3 0  9998
2 38709  98.9520 282.4317 0011786  58.5055 301.7274 14.24479692621742
SPOT 6                  
1 38755U 12047A   24190.20038778  .00000586  00000+0  13599-3 0  9991
2 38755  98.2217 256.6233 0001231 108.8203 251.3130 14.58564098629737
PLEIADES 1B             
1 39019U 12068A   24190.21919700  .00000580  00000+0  13461-3 0  9994
2 39019  98.1957 264.4350 0001304 100.1852 259.9495 14.58583898617503
GOKTURK 2               
1 39030U 12073A   24190.20779534  .00000702  00000+0  11411-3 0  9990
2 39030  97.7507  50.1892 0002061  96.5467 263.5977 14.73969751620035
LANDSAT 8               
1 39084U 13008A   24190.01197544  .00000592  00000+0  14147-3 0  9998
2 39084  98.2284 259.3677 0001107  99.3727 260.7597 14.57099663606440
GAOFEN-1                
1 39150U 13018A   24190.20606975  .00001030  00000+0  15471-3 0  9996
2 39150  97.9888 262.3482 0020655  33.3472 326.9034 14.76538882603666
VNREDSAT 1              
1 39160U 13021B   24190.17724236  .00001009  00000+0  20293-3 0  9992
2 39160  97.9963 256.3882 0001276 105.6135 254.5209 14.63642168596520
ARIRANG-5 (KOMPSAT-5)   
1 39227U 13042A   24190.12009811  .00002622  00000+0  19133-3 0  9992
2 39227  97.6205  15.7268 0002798  50.4313 309.7160 15.04557784597301
